STARLINK-31259          
1 59076U 24041C   26068.08745656 -.00001117  00000+0 -31083-4 0  9991
2 59076  43.0014 313.7493 0001253 278.0582  82.0128 15.27573060113130
HAWK-11A                
1 62382U 24247F   26068.51231358  .00009457  00000+0  34106-3 0  9991
2 62382  44.9941 114.3328 0005466 327.3713  32.6832 15.28849427 67741
